NORAD_CAT_ID,OBJECT_NAME,OBJECT_TYPE,EPOCH,MEAN_MOTION,ECCENTRICITY,INCLINATION,RA_OF_ASC_NODE,ARG_OF_PERICENTER,MEAN_ANOMALY,BSTAR,MEAN_MOTION_DOT,MEAN_MOTION_DDOT,TLE_LINE0,TLE_LINE1,TLE_LINE2,SEMIMAJOR_AXIS,PERIOD,APOGEE,PERIGEE,DECAYED
53276.0,STARLINK-4174,PAYLOAD,2023-12-07 01:41:27,15.08832906,0.0001645,53.2168,281.4905,97.7378,262.3801,-6.9081e-05,-1.387e-05,0.0,0 STARLINK-4174,1 53276U 22086AL  23341.07045789 -.00001387  00000-0 -69081-4 0  9993,2 53276  53.2168 281.4905 0001645  97.7378 262.3801 15.08832906 76856,6917.902,95.438,540.905,538.629,0.0
53276.0,STARLINK-4174,PAYLOAD,2023-12-08 03:07:37,15.08849463,0.0001523,53.2164,276.7331,79.0978,281.0185,0.00044373,6.783e-05,0.0,0 STARLINK-4174,1 53276U 22086AL  23342.13029787  .00006783  00000-0  44373-3 0  9990,2 53276  53.2164 276.7331 0001523  79.0978 281.0185 15.08849463 76844,6917.851,95.437,540.77,538.663,0.0
53276.0,STARLINK-4174,PAYLOAD,2023-12-08 19:01:29,15.08842452,0.0001476,53.2161,273.7623,74.2685,285.8469,0.00024904,3.678e-05,0.0,0 STARLINK-4174,1 53276U 22086AL  23342.79270080  .00003678  00000-0  24904-3 0  9994,2 53276  53.2161 273.7623 0001476  74.2685 285.8469 15.08842452 76940,6917.873,95.437,540.759,538.717,0.0
53276.0,STARLINK-4174,PAYLOAD,2023-12-09 02:58:25,15.08842551,0.0001408,53.2158,272.2721,93.9023,266.2131,0.00015637,2.202e-05,0.0,0 STARLINK-4174,1 53276U 22086AL  23343.12390101  .00002202  00000-0  15637-3 0  9994,2 53276  53.2158 272.2721 0001408  93.9023 266.2131 15.08842551 77162,6917.873,95.437,540.712,538.764,0.0
53276.0,STARLINK-4174,PAYLOAD,2023-12-09 20:27:39,15.08841698,0.0001453,53.2161,269.0037,92.6994,267.4164,1.0261e-05,-1.25e-06,0.0,0 STARLINK-4174,1 53276U 22086AL  23343.85254231 -.00000125  00000-0  10261-4 0  9999,2 53276  53.2161 269.0037 0001453  92.6994 267.4164 15.08841698 77107,6917.875,95.437,540.745,538.735,0.0
53276.0,STARLINK-4174,PAYLOAD,2023-12-11 01:04:36,15.08842611,0.0001415,53.2163,263.6496,81.4708,278.6444,0.00016112,2.277e-05,0.0,0 STARLINK-4174,1 53276U 22086AL  23345.04486438  .00002277  00000-0  16112-3 0  9997,2 53276  53.2163 263.6496 0001415  81.4708 278.6444 15.08842611 77285,6917.872,95.437,540.716,538.759,0.0
53276.0,STARLINK-4174,PAYLOAD,2023-12-11 21:44:36,15.08843687,0.0001475,53.2161,259.7859,90.7452,269.3709,0.00018706,2.691e-05,0.0,0 STARLINK-4174,1 53276U 22086AL  23345.90598349  .00002691  00000-0  18706-3 0  9998,2 53276  53.2161 259.7859 0001475  90.7452 269.3709 15.08843687 77585,6917.869,95.437,540.755,538.714,0.0
53276.0,STARLINK-4174,PAYLOAD,2023-12-12 00:55:23,15.08847353,0.0001627,53.2168,259.1919,88.8186,271.2992,0.00023061,3.385e-05,0.0,0 STARLINK-4174,1 53276U 22086AL  23346.03846194  .00003385  00000-0  23061-3 0  9998,2 53276  53.2168 259.1919 0001627  88.8186 271.2992 15.08847353 77607,6917.858,95.437,540.848,538.597,0.0
53276.0,STARLINK-4174,PAYLOAD,2023-12-12 21:35:23,15.08845003,0.0001656,53.2163,255.3253,108.9356,251.1816,0.00012402,1.687e-05,0.0,0 STARLINK-4174,1 53276U 22086AL  23346.89958217  .00001687  00000-0  12402-3 0  9992,2 53276  53.2163 255.3253 0001656 108.9356 251.1816 15.08845003 77732,6917.865,95.437,540.876,538.584,0.0
53276.0,STARLINK-4174,PAYLOAD,2023-12-13 00:46:10,15.08843218,0.0001646,53.2166,254.7306,95.7799,264.338,5.7679e-05,6.3e-06,0.0,0 STARLINK-4174,1 53276U 22086AL  23347.03206319  .00000630  00000-0  57679-4 0  9991,2 53276  53.2166 254.7306 0001646  95.7799 264.3380 15.08843218 77581,6917.871,95.437,540.874,538.597,0.0
53276.0,STARLINK-4174,PAYLOAD,2023-12-13 21:26:10,15.08847469,0.0001628,53.2165,250.8647,106.6235,253.4936,-2.9888e-05,-7.64e-06,0.0,0 STARLINK-4174,1 53276U 22086AL  23347.89317845 -.00000764  00000-0 -29888-4 0  9993,2 53276  53.2165 250.8647 0001628 106.6235 253.4936 15.08847469 77883,6917.858,95.437,540.849,538.596,0.0
53276.0,STARLINK-4174,PAYLOAD,2023-12-14 00:36:56,15.08849425,0.0001557,53.217,250.2722,100.7736,259.3432,4.2998e-05,3.97e-06,0.0,0 STARLINK-4174,1 53276U 22086AL  23348.02565784  .00000397  00000-0  42998-4 0  9993,2 53276  53.2170 250.2722 0001557 100.7736 259.3432 15.08849425 77902,6917.852,95.437,540.794,538.639,0.0
53276.0,STARLINK-4174,PAYLOAD,2023-12-14 21:16:57,15.08840356,0.0001601,53.2158,246.4041,107.49,252.6267,-2.7793e-06,-3.32e-06,0.0,0 STARLINK-4174,1 53276U 22086AL  23348.88678083 -.00000332  00000-0 -27793-5 0  9992,2 53276  53.2158 246.4041 0001601 107.4900 252.6267 15.08840356 77867,6917.879,95.438,540.852,538.637,0.0
53276.0,STARLINK-4174,PAYLOAD,2023-12-14 22:52:21,15.08839645,0.0001603,53.2162,246.1059,108.7121,251.4046,-1.1157e-05,-4.66e-06,0.0,0 STARLINK-4174,1 53276U 22086AL  23348.95302088 -.00000466  00000-0 -11157-4 0  9993,2 53276  53.2162 246.1059 0001603 108.7121 251.4046 15.08839645 78041,6917.881,95.438,540.855,538.638,0.0
53276.0,STARLINK-4174,PAYLOAD,2023-12-15 22:43:08,15.0883043,0.0001503,53.2159,241.6518,98.6098,261.5065,-0.00012549,-2.284e-05,0.0,0 STARLINK-4174,1 53276U 22086AL  23349.94663130 -.00002284  00000-0 -12549-3 0  9996,2 53276  53.2159 241.6518 0001503  98.6098 261.5065 15.08830430 78198,6917.91,95.438,540.814,538.735,0.0
53276.0,STARLINK-4174,PAYLOAD,2023-12-16 00:18:32,15.08835455,0.0001393,53.2164,241.3509,80.1489,279.966,-5.3261e-05,-1.135e-05,0.0,0 STARLINK-4174,1 53276U 22086AL  23350.01287464 -.00001135  00000-0 -53261-4 0  9999,2 53276  53.2164 241.3509 0001393  80.1489 279.9660 15.08835455 78037,6917.894,95.438,540.723,538.796,0.0
53276.0,STARLINK-4174,PAYLOAD,2023-12-16 22:33:55,15.08854995,0.0001255,53.2158,237.1841,91.4872,268.6264,1.395e-06,-2.66e-06,0.0,0 STARLINK-4174,1 53276U 22086AL  23350.94022244 -.00000266  00000-0  13950-5 0  9999,2 53276  53.2158 237.1841 0001255  91.4872 268.6264 15.08854995 78349,6917.835,95.437,540.568,538.831,0.0
53276.0,STARLINK-4174,PAYLOAD,2023-12-17 00:09:18,15.08844668,0.0001467,53.2152,236.891,75.5787,284.5368,0.00026373,3.912e-05,0.0,0 STARLINK-4174,1 53276U 22086AL  23351.00646767  .00003912  00000-0  26373-3 0  9990,2 53276  53.2152 236.8910 0001467  75.5787 284.5368 15.08844668 78189,6917.866,95.437,540.746,538.716,0.0
53276.0,STARLINK-4174,PAYLOAD,2023-12-17 22:24:42,15.0884458,0.0001615,53.2158,232.7224,69.6184,290.4982,0.00020397,2.96e-05,0.0,0 STARLINK-4174,1 53276U 22086AL  23351.93383084  .00002960  00000-0  20397-3 0  9994,2 53276  53.2158 232.7224 0001615  69.6184 290.4982 15.08844580 78493,6917.866,95.437,540.849,538.614,0.0
53276.0,STARLINK-4174,PAYLOAD,2023-12-18 00:00:06,15.08847032,0.0001667,53.216,232.4266,68.4289,291.6881,0.00024058,3.544e-05,0.0,0 STARLINK-4174,1 53276U 22086AL  23352.00007002  .00003544  00000-0  24058-3 0  9993,2 53276  53.2160 232.4266 0001667  68.4289 291.6881 15.08847032 78338,6917.859,95.437,540.877,538.571,0.0
53276.0,STARLINK-4174,PAYLOAD,2023-12-18 22:15:29,15.08844259,0.0001698,53.2161,228.2639,69.6547,290.4627,3.4233e-05,2.57e-06,0.0,0 STARLINK-4174,1 53276U 22086AL  23352.92742973  .00000257  00000-0  34233-4 0  9992,2 53276  53.2161 228.2639 0001698  69.6547 290.4627 15.08844259 78647,6917.867,95.437,540.907,538.558,0.0
53276.0,STARLINK-4174,PAYLOAD,2023-12-19 18:55:31,15.08838856,0.0001616,53.2152,224.4011,112.7709,247.3454,-9.1946e-06,-4.34e-06,0.0,0 STARLINK-4174,1 53276U 22086AL  23353.78855377 -.00000434  00000-0 -91946-5 0  9994,2 53276  53.2152 224.4011 0001616 112.7709 247.3454 15.08838856 78600,6917.884,95.438,540.867,538.631,0.0
53276.0,STARLINK-4174,PAYLOAD,2023-12-19 22:06:17,15.08837801,0.0001524,53.2146,223.806,76.6712,283.445,-2.0921e-06,-3.21e-06,0.0,0 STARLINK-4174,1 53276U 22086AL  23353.92103608 -.00000321  00000-0 -20921-5 0  9993,2 53276  53.2146 223.8060 0001524  76.6712 283.4450 15.08837801 78796,6917.887,95.438,540.806,538.698,0.0
53276.0,STARLINK-4174,PAYLOAD,2023-12-20 20:21:41,15.08845141,0.0001515,53.2149,219.641,95.8636,264.2528,0.00022601,3.311e-05,0.0,0 STARLINK-4174,1 53276U 22086AL  23354.84839217  .00003311  00000-0  22601-3 0  9992,2 53276  53.2149 219.6410 0001515  95.8636 264.2528 15.08845141 78765,6917.865,95.437,540.778,538.682,0.0
53276.0,STARLINK-4174,PAYLOAD,2023-12-20 21:57:04,15.08847808,0.0001546,53.2152,219.3429,97.9214,262.1954,0.00025966,3.848e-05,0.0,0 STARLINK-4174,1 53276U 22086AL  23354.91463069  .00003848  00000-0  25966-3 0  9990,2 53276  53.2152 219.3429 0001546  97.9214 262.1954 15.08847808 78947,6917.857,95.437,540.791,538.652,0.0
53276.0,STARLINK-4174,PAYLOAD,2023-12-21 21:47:52,15.08812139,0.0001309,53.2152,214.8815,91.601,268.5132,-0.00030401,-5.119e-05,0.0,0 STARLINK-4174,1 53276U 22086AL  23355.90824900 -.00005119  00000-0 -30401-3 0  9990,2 53276  53.2152 214.8815 0001309  91.6010 268.5132 15.08812139 79092,6917.966,95.439,540.736,538.925,0.0
53276.0,STARLINK-4174,PAYLOAD,2023-12-22 20:03:16,15.08827236,0.0001384,53.215,210.7189,80.7879,279.3269,-7.994e-06,-4.15e-06,0.0,0 STARLINK-4174,1 53276U 22086AL  23356.83561074 -.00000415  00000-0 -79940-5 0  9990,2 53276  53.2150 210.7189 0001384  80.7879 279.3269 15.08827236 79066,6917.919,95.438,540.742,538.827,0.0
53276.0,STARLINK-4174,PAYLOAD,2023-12-22 21:38:39,15.08831016,0.0001449,53.2155,210.4225,91.1012,269.0146,7.8283e-05,9.58e-06,0.0,0 STARLINK-4174,1 53276U 22086AL  23356.90184973  .00000958  00000-0  78283-4 0  9995,2 53276  53.2155 210.4225 0001449  91.1012 269.0146 15.08831016 79247,6917.908,95.438,540.775,538.77,0.0
53276.0,STARLINK-4174,PAYLOAD,2023-12-23 13:32:31,15.08839015,0.0001363,53.2151,207.4446,76.1279,283.9865,0.00068991,0.00010709,0.0,0 STARLINK-4174,1 53276U 22086AL  23357.56425416  .00010709  00000-0  68991-3 0  9997,2 53276  53.2151 207.4446 0001363  76.1279 283.9865 15.08839015 79348,6917.883,95.438,540.691,538.805,0.0
53276.0,STARLINK-4174,PAYLOAD,2023-12-23 19:54:03,15.08862473,0.0001154,53.2138,206.2597,84.2505,275.8619,0.00087571,0.00013685,0.0,0 STARLINK-4174,1 53276U 22086AL  23357.82920660  .00013685  00000-0  87571-3 0  9998,2 53276  53.2138 206.2597 0001154  84.2505 275.8619 15.08862473 79214,6917.812,95.436,540.475,538.878,0.0
